[{"OBJECT_NAME":"STARLINK-35824","OBJECT_ID":"2025-254Y","EPOCH":"2026-03-09T17:36:01.579104","MEAN_MOTION":15.30201559,"ECCENTRICITY":0.00010412,"INCLINATION":53.1578,"RA_OF_ASC_NODE":229.988,"ARG_OF_PERICENTER":73.2932,"MEAN_ANOMALY":286.8183,"EPHEMERIS_TYPE":0,"CLASSIFICATION_TYPE":"U","NORAD_CAT_ID":66370,"ELEMENT_SET_NO":999,"REV_AT_EPOCH":1901,"BSTAR":0.0010895715,"MEAN_MOTION_DOT":0.00032052,"MEAN_MOTION_DDOT":0},{"OBJECT_NAME":"CZ-6A DEB","OBJECT_ID":"2022-151QB","EPOCH":"2026-03-08T18:03:47.471328","MEAN_MOTION":15.32168285,"ECCENTRICITY":0.00205863,"INCLINATION":98.6246,"RA_OF_ASC_NODE":151.4486,"ARG_OF_PERICENTER":181.9757,"MEAN_ANOMALY":178.1404,"EPHEMERIS_TYPE":0,"CLASSIFICATION_TYPE":"U","NORAD_CAT_ID":54890,"ELEMENT_SET_NO":999,"REV_AT_EPOCH":17659,"BSTAR":0.012866954,"MEAN_MOTION_DOT":0.00424465,"MEAN_MOTION_DDOT":0}]
